{
    "CCSDS_OMM_VERS": "3.0",
    "COMMENT": "GENERATED VIA SPACE-TRACK.ORG API",
    "CREATION_DATE": "2025-05-23T06:26:20",
    "ORIGINATOR": "18 SPCS",
    "OBJECT_NAME": "COSMOS 2460 (GLONASS)",
    "OBJECT_ID": "2010-007C",
    "CENTER_NAME": "EARTH",
    "REF_FRAME": "TEME",
    "TIME_SYSTEM": "UTC",
    "MEAN_ELEMENT_THEORY": "SGP4",
    "EPOCH": "2025-05-22T23:27:38.631744",
    "MEAN_MOTION": "2.13106140",
    "ECCENTRICITY": "0.00021540",
    "INCLINATION": "65.6387",
    "RA_OF_ASC_NODE": "327.6420",
    "ARG_OF_PERICENTER": "78.0451",
    "MEAN_ANOMALY": "108.4452",
    "EPHEMERIS_TYPE": "0",
    "CLASSIFICATION_TYPE": "U",
    "NORAD_CAT_ID": "36402",
    "ELEMENT_SET_NO": "999",
    "REV_AT_EPOCH": "11850",
    "BSTAR": "0.00000000000000",
    "MEAN_MOTION_DOT": "-0.00000025",
    "MEAN_MOTION_DDOT": "0.0000000000000",
    "SEMIMAJOR_AXIS": "25507.694",
    "PERIOD": "675.720",
    "APOAPSIS": "19135.053",
    "PERIAPSIS": "19124.065",
    "OBJECT_TYPE": "PAYLOAD",
    "RCS_SIZE": "LARGE",
    "COUNTRY_CODE": "CIS",
    "LAUNCH_DATE": "2010-03-01",
    "SITE": "TTMTR",
    "DECAY_DATE": null,
    "FILE": "4736578",
    "GP_ID": "288165588",
    "TLE_LINE0": "0 COSMOS 2460 (GLONASS)",
    "TLE_LINE1": "1 36402U 10007C   25142.97753046 -.00000025  00000-0  00000+0 0  9995",
    "TLE_LINE2": "2 36402  65.6387 327.6420 0002154  78.0451 108.4452  2.13106140118500"
}